NORAD_CAT_ID,OBJECT_NAME,OBJECT_TYPE,EPOCH,MEAN_MOTION,ECCENTRICITY,INCLINATION,RA_OF_ASC_NODE,ARG_OF_PERICENTER,MEAN_ANOMALY,BSTAR,MEAN_MOTION_DOT,MEAN_MOTION_DDOT,TLE_LINE0,TLE_LINE1,TLE_LINE2,SEMIMAJOR_AXIS,PERIOD,APOGEE,PERIGEE,DECAYED
51789.0,STARLINK-3639,PAYLOAD,2022-11-26 09:12:48,15.08846689,0.0002918,53.2188,333.0166,39.0266,321.0936,6.4849e-06,-1.85e-06,0.0,0 STARLINK-3639,1 51789U 22017X   22330.38389571 -.00000185  00000-0  64849-5 0  9997,2 51789  53.2188 333.0166 0002918  39.0266 321.0936 15.08846689 42877,6917.86,95.437,541.744,537.706,0.0
51789.0,STARLINK-3639,PAYLOAD,2022-11-26 17:09:43,15.08845048,0.0002951,53.2187,331.5298,36.5706,323.5487,0.00013092,1.796e-05,0.0,0 STARLINK-3639,1 51789U 22017X   22330.71509206  .00001796  00000-0  13092-3 0  9993,2 51789  53.2187 331.5298 0002951  36.5706 323.5487 15.08845048 41272,6917.865,95.437,541.771,537.688,0.0
51789.0,STARLINK-3639,PAYLOAD,2022-11-27 07:28:13,15.08830664,0.0003369,53.2188,328.8534,31.6287,328.4907,-8.624e-05,-1.661e-05,0.0,0 STARLINK-3639,1 51789U 22017X   22331.31126716 -.00001661  00000-0 -86240-4 0  9990,2 51789  53.2188 328.8534 0003369  31.6287 328.4907 15.08830664 43012,6917.909000000002,95.438,542.105,537.443,0.0
51789.0,STARLINK-3639,PAYLOAD,2022-11-27 17:00:32,15.08832535,0.0003143,53.2186,327.0675,34.0347,326.0846,-0.00010418,-1.946e-05,0.0,0 STARLINK-3639,1 51789U 22017X   22331.70870664 -.00001946  00000-0 -10418-3 0  9990,2 51789  53.2186 327.0675 0003143  34.0347 326.0846 15.08832535 41429,6917.903,95.438,541.943,537.594,0.0
51789.0,STARLINK-3639,PAYLOAD,2022-11-28 08:54:22,15.08841983,0.0003005,53.2178,324.0945,35.1945,324.9245,3.3202e-05,2.4e-06,0.0,0 STARLINK-3639,1 51789U 22017X   22332.37109730  .00000240  00000-0  33202-4 0  9994,2 51789  53.2178 324.0945 0003005  35.1945 324.9245 15.08841983 43171,6917.874,95.437,541.818,537.661,0.0
51789.0,STARLINK-3639,PAYLOAD,2022-11-28 16:51:18,15.08847319,0.0003043,53.2178,322.6078,35.1784,324.9409,2.6034e-05,1.26e-06,0.0,0 STARLINK-3639,1 51789U 22017X   22332.70229348  .00000126  00000-0  26034-4 0  9997,2 51789  53.2178 322.6078 0003043  35.1784 324.9409 15.08847319 41578,6917.858,95.437,541.828,537.618,0.0
51789.0,STARLINK-3639,PAYLOAD,2022-11-29 08:45:09,15.08840125,0.0003088,53.2178,319.6341,36.896,323.2244,4.5874e-05,4.42e-06,0.0,0 STARLINK-3639,1 51789U 22017X   22333.36469709  .00000442  00000-0  45874-4 0  9991,2 51789  53.2178 319.6341 0003088  36.8960 323.2244 15.08840125 41678,6917.88,95.438,541.881,537.609,0.0
51789.0,STARLINK-3639,PAYLOAD,2022-11-30 05:25:10,15.08840593,0.0002985,53.218,315.7675,38.9438,321.1769,7.8684e-05,9.64e-06,0.0,0 STARLINK-3639,1 51789U 22017X   22334.22581684  .00000964  00000-0  78684-4 0  9998,2 51789  53.2180 315.7675 0002985  38.9438 321.1769 15.08840593 43452,6917.879,95.438,541.809,537.679,0.0
51789.0,STARLINK-3639,PAYLOAD,2022-11-30 08:35:57,15.0883751,0.0002766,53.2186,315.1751,27.4097,332.7041,1.9724e-05,2.5e-07,0.0,0 STARLINK-3639,1 51789U 22017X   22334.35830102  .00000025  00000-0  19724-4 0  9992,2 51789  53.2186 315.1751 0002766  27.4097 332.7041 15.08837510 43476,6917.888000000001,95.438,541.6659999999998,537.84,0.0
51789.0,STARLINK-3639,PAYLOAD,2022-12-01 08:26:43,15.08841666,0.000295,53.2181,310.7123,38.382,321.7382,5.296e-05,5.54e-06,0.0,0 STARLINK-3639,1 51789U 22017X   22335.35189576  .00000554  00000-0  52960-4 0  9991,2 51789  53.2181 310.7123 0002950  38.3820 321.7382 15.08841666 41971,6917.875,95.437,541.781,537.7,0.0
51789.0,STARLINK-3639,PAYLOAD,2022-12-02 08:17:30,15.08842644,0.0003018,53.2177,306.2541,34.5006,325.6181,3.1592e-05,2.14e-06,0.0,0 STARLINK-3639,1 51789U 22017X   22336.34549647  .00000214  00000-0  31592-4 0  9991,2 51789  53.2177 306.2541 0003018  34.5006 325.6181 15.08842644 43777,6917.871999999999,95.437,541.825,537.649,0.0
51789.0,STARLINK-3639,PAYLOAD,2022-12-03 04:57:32,15.08826555,0.0002929,53.2183,302.3879,38.2423,321.8777,3.3046e-05,2.37e-06,0.0,0 STARLINK-3639,1 51789U 22017X   22337.20662906  .00000237  00000-0  33046-4 0  9992,2 51789  53.2183 302.3879 0002929  38.2423 321.8777 15.08826555 43906,6917.920999999999,95.438,541.813,537.76,0.0
51789.0,STARLINK-3639,PAYLOAD,2022-12-03 06:32:55,15.0882624,0.0002942,53.2183,302.0906,38.0413,322.0786,2.9773e-05,1.85e-06,0.0,0 STARLINK-3639,1 51789U 22017X   22337.27286971  .00000185  00000-0  29773-4 0  9997,2 51789  53.2183 302.0906 0002942  38.0413 322.0786 15.08826240 42268,6917.922,95.438,541.823,537.752,0.0
51789.0,STARLINK-3639,PAYLOAD,2022-12-04 04:48:19,15.08842356,0.0003114,53.2188,297.9273,37.0317,323.089,-2.8239e-05,-7.38e-06,0.0,0 STARLINK-3639,1 51789U 22017X   22338.20022603 -.00000738  00000-0 -28239-4 0  9993,2 51789  53.2188 297.9273 0003114  37.0317 323.0890 15.08842356 44058,6917.873000000001,95.437,541.8919999999998,537.5840000000002,0.0
51789.0,STARLINK-3639,PAYLOAD,2022-12-04 07:59:06,15.08832802,0.0003072,53.2189,297.3327,38.0331,322.0878,7.858e-05,9.62e-06,0.0,0 STARLINK-3639,1 51789U 22017X   22338.33270876  .00000962  00000-0  78580-4 0  9995,2 51789  53.2189 297.3327 0003072  38.0331 322.0878 15.08832802 42422,6917.901999999999,95.438,541.893,537.6419999999998,0.0
51789.0,STARLINK-3639,PAYLOAD,2022-12-04 14:20:37,15.08846509,0.0003062,53.2184,296.1428,36.4139,323.7061,1.6499000000000002e-05,-2.6e-07,0.0,0 STARLINK-3639,1 51789U 22017X   22338.59766161 -.00000026  00000-0  16499-4 0  9993,2 51789  53.2184 296.1428 0003062  36.4139 323.7061 15.08846509 42468,6917.86,95.437,541.844,537.607,0.0
51789.0,STARLINK-3639,PAYLOAD,2022-12-05 06:14:29,15.08840684,0.0003142,53.2179,293.1695,36.6365,323.4841,8.4072e-05,1.05e-05,0.0,0 STARLINK-3639,1 51789U 22017X   22339.26006553  .00001050  00000-0  84072-4 0  9999,2 51789  53.2179 293.1695 0003142  36.6365 323.4841 15.08840684 44213,6917.878000000002,95.438,541.9169999999998,537.57,0.0
51789.0,STARLINK-3639,PAYLOAD,2022-12-05 20:32:57,15.08847932,0.0003101,53.2181,290.4935,35.6908,324.4291,0.00013296,1.829e-05,0.0,0 STARLINK-3639,1 51789U 22017X   22339.85621813  .00001829  00000-0  13296-3 0  9999,2 51789  53.2181 290.4935 0003101  35.6908 324.4291 15.08847932 44303,6917.856,95.437,541.866,537.576,0.0
51789.0,STARLINK-3639,PAYLOAD,2022-12-06 06:05:15,15.08850072,0.0002999,53.2179,288.7089,37.1185,323.0015,0.0001243,1.691e-05,0.0,0 STARLINK-3639,1 51789U 22017X   22340.25365561  .00001691  00000-0  12430-3 0  9996,2 51789  53.2179 288.7089 0002999  37.1185 323.0015 15.08850072 42719,6917.85,95.437,541.789,537.64,0.0
51789.0,STARLINK-3639,PAYLOAD,2022-12-06 14:02:12,15.08840659,0.0003166,53.2182,287.2227,35.8639,324.2565,1.7695e-05,-7e-08,0.0,0 STARLINK-3639,1 51789U 22017X   22340.58486486 -.00000007  00000-0  17695-4 0  9992,2 51789  53.2182 287.2227 0003166  35.8639 324.2565 15.08840659 44419,6917.878000000002,95.438,541.934,537.553,0.0
51789.0,STARLINK-3639,PAYLOAD,2022-12-06 23:34:32,15.08823104,0.00028,53.2178,285.4377,35.9673,324.1508,-8.6579e-05,-1.666e-05,0.0,0 STARLINK-3639,1 51789U 22017X   22340.98231955 -.00001666  00000-0 -86579-4 0  9995,2 51789  53.2178 285.4377 0002800  35.9673 324.1508 15.08823104 44471,6917.932,95.439,541.734,537.86,0.0
51789.0,STARLINK-3639,PAYLOAD,2022-12-07 13:53:00,15.08837348,0.0002878,53.2182,282.7622,36.8649,323.254,-3.3293e-05,-8.18e-06,0.0,0 STARLINK-3639,1 51789U 22017X   22341.57847301 -.00000818  00000-0 -33293-4 0  9992,2 51789  53.2182 282.7622 0002878  36.8649 323.2540 15.08837348 44568,6917.888000000001,95.438,541.744,537.763,0.0
51789.0,STARLINK-3639,PAYLOAD,2022-12-07 23:25:18,15.08842231,0.0003362,53.2182,280.981,27.5359,332.5811,5.882100000000001e-05,6.48e-06,0.0,0 STARLINK-3639,1 51789U 22017X   22341.97590745  .00000648  00000-0  58821-4 0  9996,2 51789  53.2182 280.9810 0003362  27.5359 332.5811 15.08842231 44629,6917.874,95.437,542.064,537.413,0.0
51789.0,STARLINK-3639,PAYLOAD,2022-12-08 02:36:04,15.08849113,0.0002926,53.2178,280.3826,36.2505,323.8684,6.6962e-05,7.78e-06,0.0,0 STARLINK-3639,1 51789U 22017X   22342.10838307  .00000778  00000-0  66962-4 0  9990,2 51789  53.2178 280.3826 0002926  36.2505 323.8684 15.08849113 42995,6917.853,95.437,541.742,537.693,0.0
51789.0,STARLINK-3639,PAYLOAD,2022-12-08 23:16:04,15.08840316,0.0002643,53.2188,276.5171,35.8329,324.284,0.00028867,4.309e-05,0.0,0 STARLINK-3639,1 51789U 22017X   22342.96950083  .00004309  00000-0  28867-3 0  9995,2 51789  53.2188 276.5171 0002643  35.8329 324.2840 15.08840316 44774,6917.879,95.438,541.573,537.9159999999998,0.0
51789.0,STARLINK-3639,PAYLOAD,2022-12-09 05:37:37,15.0884987,0.0002721,53.2174,275.3266,35.7274,324.39,0.00029432,4.4e-05,0.0,0 STARLINK-3639,1 51789U 22017X   22343.23446167  .00004400  00000-0  29432-3 0  9990,2 51789  53.2174 275.3266 0002721  35.7274 324.3900 15.08849870 43160,6917.85,95.437,541.5980000000002,537.8330000000002,0.0
51789.0,STARLINK-3639,PAYLOAD,2022-12-09 19:56:06,15.08826241,0.0002853999999999,53.2175,272.6522,31.6476,328.4687,-0.00021728,-3.744e-05,0.0,0 STARLINK-3639,1 51789U 22017X   22343.83063624 -.00003744  00000-0 -21728-3 0  9991,2 51789  53.2175 272.6522 0002854  31.6476 328.4687 15.08826241 44909,6917.922,95.438,541.762,537.813,0.0
51789.0,STARLINK-3639,PAYLOAD,2022-12-10 00:42:16,15.08825259,0.0002715,53.2179,271.7598,33.7912,326.3253,-0.00022564,-3.877e-05,0.0,0 STARLINK-3639,1 51789U 22017X   22344.02935754 -.00003877  00000-0 -22564-3 0  9991,2 51789  53.2179 271.7598 0002715  33.7912 326.3253 15.08825259 43284,6917.925,95.438,541.669,537.9119999999998,0.0
51789.0,STARLINK-3639,PAYLOAD,2022-12-11 05:19:12,15.08837822,0.0002974,53.2177,266.4077,33.5005,326.6175,1.0257e-05,-1.25e-06,0.0,0 STARLINK-3639,1 51789U 22017X   22345.22167275 -.00000125  00000-0  10257-4 0  9998,2 51789  53.2177 266.4077 0002974  33.5005 326.6175 15.08837822 45112,6917.887,95.438,541.809,537.695,0.0
